OBJECT_NAME,OBJECT_ID,EPOCH,MEAN_MOTION,ECCENTRICITY,INCLINATION,RA_OF_ASC_NODE,ARG_OF_PERICENTER,MEAN_ANOMALY,EPHEMERIS_TYPE,CLASSIFICATION_TYPE,NORAD_CAT_ID,ELEMENT_SET_NO,REV_AT_EPOCH,BSTAR,MEAN_MOTION_DOT,MEAN_MOTION_DDOT
ONEWEB-0198,2021-031G,2026-06-05T02:58:31.447776,13.14501937,.0001806,87.8946,292.1177,113.0213,247.1108,0,U,48216,999,24690,.37362E-3,.151E-5,0
ONEWEB-0189,2021-031H,2026-06-02T18:38:41.771040,13.14502191,.0001687,87.8956,292.5705,106.9699,253.1616,0,U,48217,999,24633,-.23789E-4,.4E-7,0
ONEWEB-0196,2021-031J,2026-06-05T02:44:37.477824,13.14502459,.0001887,87.8955,292.1136,104.3918,255.7421,0,U,48218,999,24664,.10485E-4,.17E-6,0
ONEWEB-0183,2021-031K,2026-06-05T02:08:05.392320,13.14502051,.0002085,87.8955,292.1167,97.2475,262.8892,0,U,48219,999,24673,-.50311E-3,-.174E-5,0
ONEWEB-0185,2021-031L,2026-06-05T02:45:45.046080,13.14502183,.000223,87.8963,292.1043,105.4732,254.6644,0,U,48220,999,24666,.38299E-4,.27E-6,0
ONEWEB-0187,2021-031M,2026-06-05T02:17:01.314240,13.14502061,.0002009,87.8949,292.1252,105.6134,254.5217,0,U,48221,999,24667,-.49045E-3,-.169E-5,0
ONEWEB-0192,2021-031N,2026-06-05T01:33:49.335840,13.14503951,.0001791,87.8952,292.1214,100.1011,260.0321,0,U,48222,999,24658,.50961E-3,.202E-5,0
ONEWEB-0219,2021-031P,2026-06-05T02:53:44.721600,13.14503698,.0002077,87.8952,292.1023,105.6763,254.4595,0,U,48223,999,24679,.18767E-3,.82E-6,0
ONEWEB-0202,2021-031Q,2026-06-05T02:26:21.410016,13.14502444,.0001439,87.8958,292.1177,117.1023,243.0253,0,U,48224,999,24677,-.39251E-3,-.133E-5,0
ONEWEB-0204,2021-031R,2026-06-03T11:04:02.511552,13.14502191,.00021942,87.8957,292.4397,97.3442,262.7937,0,U,48225,999,24645,.53903883E-3,.213E-5,0
ONEWEB-0205,2021-031S,2026-06-03T10:28:38.622432,13.14504177,.00019117,87.8952,292.4359,110.7659,249.3676,0,U,48226,999,24646,.66866415E-3,.261E-5,0
ONEWEB-0206,2021-031T,2026-06-05T02:01:14.384928,13.14502774,.0001862,87.8960,292.1104,92.9764,267.1579,0,U,48227,999,24663,-.22955E-3,-.72E-6,0
ONEWEB-0182,2021-031U,2026-06-05T01:54:22.928256,13.14501572,.0002124,87.8956,292.1195,97.0501,263.0870,0,U,48228,999,24684,-.75095E-4,-.15E-6,0
ONEWEB-0186,2021-031V,2026-06-05T02:10:21.677952,13.14501708,.0001928,87.8964,292.1067,101.3195,258.8152,0,U,48229,999,24679,-.45618E-3,-.156E-5,0
ONEWEB-0181,2021-031W,2026-06-05T01:38:24.487872,13.14502611,.0001862,87.8948,292.1429,105.0315,255.1021,0,U,48230,999,24664,.56949E-3,.224E-5,0
ONEWEB-0188,2021-031X,2026-06-05T02:33:12.616128,13.14503568,.0001939,87.8947,292.1341,100.5419,259.5929,0,U,48231,999,24655,-.32774E-3,-.109E-5,0
ONEWEB-0220,2021-031Y,2026-06-05T01:40:39.563040,13.14504705,.0001957,87.8959,292.1119,105.4896,254.6449,0,U,48232,999,24681,-.44717E-3,-.153E-5,0
ONEWEB-0165,2021-031Z,2026-06-05T02:21:45.726624,13.14510766,.000177,87.8957,292.1202,110.9645,249.1674,0,U,48233,999,24677,.13202E-2,.502E-5,0
ONEWEB-0199,2021-031AA,2026-06-05T01:58:57.158400,13.14502504,.0001908,87.8964,292.1089,92.7615,267.3733,0,U,48234,999,24667,-.83362E-4,-.18E-6,0
ONEWEB-0203,2021-031AB,2026-06-05T01:45:15.078816,13.14501621,.0001712,87.8963,292.1144,97.5157,262.6168,0,U,48235,999,24668,.31206E-3,.128E-5,0
ONEWEB-0197,2021-031AC,2026-06-05T02:58:08.124096,13.14502618,.0002203,87.8951,292.0916,100.8848,259.2530,0,U,48236,999,24660,.11727E-3,.56E-6,0
ONEWEB-0194,2021-031AD,2026-06-05T02:28:37.877088,13.14502110,.0001762,87.8956,292.1171,93.0408,267.0923,0,U,48237,999,24677,-.31294E-3,-.103E-5,0
ONEWEB-0193,2021-031AE,2026-06-05T02:51:28.092960,13.14501662,.000156,87.8955,292.1043,90.0010,270.1299,0,U,48238,999,24672,.40597E-3,.163E-5,0
ONEWEB-0191,2021-031AF,2026-06-05T03:07:27.760224,13.14502630,.0002085,87.8959,292.1003,97.9283,262.2084,0,U,48239,999,24658,.78806E-3,.305E-5,0
ONEWEB-0195,2021-031AG,2026-06-05T02:34:19.102656,13.14502026,.0001774,87.8961,292.1056,112.0690,248.0629,0,U,48240,999,24656,-.69977E-3,-.247E-5,0
ONEWEB-0201,2021-031AH,2026-06-05T02:17:24.922176,13.14503523,.000219,87.8955,292.1246,100.6699,259.4677,0,U,48241,999,24679,-.56271E-3,-.196E-5,0
ONEWEB-0207,2021-031AJ,2026-06-05T01:48:40.454208,13.14501872,.0002153,87.8962,292.1129,100.5311,259.6061,0,U,48242,999,24670,.19494E-3,.85E-6,0
ONEWEB-0208,2021-031AK,2026-06-03T11:00:37.353888,13.14502474,.00016784,87.8956,292.4422,107.5541,252.5772,0,U,48243,999,24650,.4211089E-3,.169E-5,0
ONEWEB-0200,2021-031AL,2026-06-05T02:19:29.614656,13.14499335,.0001939,87.8962,292.1008,102.2098,257.9249,0,U,48244,999,24664,.91229E-3,.351E-5,0
ONEWEB-0217,2021-031AM,2026-06-05T02:42:20.152800,13.14501853,.0001776,87.8962,292.1028,109.9833,250.1488,0,U,48245,999,24659,-.17398E-3,-.52E-6,0
