[
  {
    "name": "ONEWEB-0198",
    "noradId": "48216",
    "line1": "1 48216U 21031G   26156.12397509  .00000151  00000+0  37362-3 0  9994",
    "line2": "2 48216  87.8946 292.1177 0001806 113.0213 247.1108 13.14501937246908"
  },
  {
    "name": "ONEWEB-0189",
    "noradId": "48217",
    "line1": "1 48217U 21031H   26153.77687235  .00000004  00000+0 -23789-4 0  9998",
    "line2": "2 48217  87.8956 292.5705 0001687 106.9699 253.1616 13.14502191246338"
  },
  {
    "name": "ONEWEB-0196",
    "noradId": "48218",
    "line1": "1 48218U 21031J   26156.11432266  .00000017  00000+0  10485-4 0  9994",
    "line2": "2 48218  87.8955 292.1136 0001887 104.3918 255.7421 13.14502459246643"
  },
  {
    "name": "ONEWEB-0183",
    "noradId": "48219",
    "line1": "1 48219U 21031K   26156.08895130 -.00000174  00000+0 -50311-3 0  9991",
    "line2": "2 48219  87.8955 292.1167 0002085  97.2475 262.8892 13.14502051246736"
  },
  {
    "name": "ONEWEB-0185",
    "noradId": "48220",
    "line1": "1 48220U 21031L   26156.11510470  .00000027  00000+0  38299-4 0  9995",
    "line2": "2 48220  87.8963 292.1043 0002230 105.4732 254.6644 13.14502183246662"
  },
  {
    "name": "ONEWEB-0187",
    "noradId": "48221",
    "line1": "1 48221U 21031M   26156.09515410 -.00000169  00000+0 -49045-3 0  9991",
    "line2": "2 48221  87.8949 292.1252 0002009 105.6134 254.5217 13.14502061246672"
  },
  {
    "name": "ONEWEB-0192",
    "noradId": "48222",
    "line1": "1 48222U 21031N   26156.06515435  .00000202  00000+0  50961-3 0  9991",
    "line2": "2 48222  87.8952 292.1214 0001791 100.1011 260.0321 13.14503951246583"
  },
  {
    "name": "ONEWEB-0219",
    "noradId": "48223",
    "line1": "1 48223U 21031P   26156.12065650  .00000082  00000+0  18767-3 0  9992",
    "line2": "2 48223  87.8952 292.1023 0002077 105.6763 254.4595 13.14503698246795"
  },
  {
    "name": "ONEWEB-0202",
    "noradId": "48224",
    "line1": "1 48224U 21031Q   26156.10163669 -.00000133  00000+0 -39251-3 0  9990",
    "line2": "2 48224  87.8958 292.1177 0001439 117.1023 243.0253 13.14502444246771"
  },
  {
    "name": "ONEWEB-0204",
    "noradId": "48225",
    "line1": "1 48225U 21031R   26154.46114018  .00000213  00000+0  53904-3 0  9990",
    "line2": "2 48225  87.8957 292.4397 0002194  97.3442 262.7937 13.14502191246452"
  },
  {
    "name": "ONEWEB-0205",
    "noradId": "48226",
    "line1": "1 48226U 21031S   26154.43655813  .00000261  00000+0  66866-3 0  9995",
    "line2": "2 48226  87.8952 292.4359 0001911 110.7659 249.3676 13.14504177246460"
  },
  {
    "name": "ONEWEB-0206",
    "noradId": "48227",
    "line1": "1 48227U 21031T   26156.08419427 -.00000072  00000+0 -22955-3 0  9991",
    "line2": "2 48227  87.8960 292.1104 0001862  92.9764 267.1579 13.14502774246638"
  },
  {
    "name": "ONEWEB-0182",
    "noradId": "48228",
    "line1": "1 48228U 21031U   26156.07943204 -.00000015  00000+0 -75095-4 0  9997",
    "line2": "2 48228  87.8956 292.1195 0002124  97.0501 263.0870 13.14501572246848"
  },
  {
    "name": "ONEWEB-0186",
    "noradId": "48229",
    "line1": "1 48229U 21031V   26156.09052868 -.00000156  00000+0 -45618-3 0  9990",
    "line2": "2 48229  87.8964 292.1067 0001928 101.3195 258.8152 13.14501708246795"
  },
  {
    "name": "ONEWEB-0181",
    "noradId": "48230",
    "line1": "1 48230U 21031W   26156.06833898  .00000224  00000+0  56949-3 0  9992",
    "line2": "2 48230  87.8948 292.1429 0001862 105.0315 255.1021 13.14502611246646"
  },
  {
    "name": "ONEWEB-0188",
    "noradId": "48231",
    "line1": "1 48231U 21031X   26156.10639602 -.00000109  00000+0 -32774-3 0  9999",
    "line2": "2 48231  87.8947 292.1341 0001939 100.5419 259.5929 13.14503568246556"
  },
  {
    "name": "ONEWEB-0220",
    "noradId": "48232",
    "line1": "1 48232U 21031Y   26156.06990235 -.00000153  00000+0 -44717-3 0  9996",
    "line2": "2 48232  87.8959 292.1119 0001957 105.4896 254.6449 13.14504705246812"
  },
  {
    "name": "ONEWEB-0165",
    "noradId": "48233",
    "line1": "1 48233U 21031Z   26156.09844591  .00000502  00000+0  13202-2 0  9993",
    "line2": "2 48233  87.8957 292.1202 0001770 110.9645 249.1674 13.14510766246778"
  },
  {
    "name": "ONEWEB-0199",
    "noradId": "48234",
    "line1": "1 48234U 21031AA  26156.08260600 -.00000018  00000+0 -83362-4 0  9996",
    "line2": "2 48234  87.8964 292.1089 0001908  92.7615 267.3733 13.14502504246675"
  },
  {
    "name": "ONEWEB-0203",
    "noradId": "48235",
    "line1": "1 48235U 21031AB  26156.07309119  .00000128  00000+0  31206-3 0  9994",
    "line2": "2 48235  87.8963 292.1144 0001712  97.5157 262.6168 13.14501621246684"
  },
  {
    "name": "ONEWEB-0197",
    "noradId": "48236",
    "line1": "1 48236U 21031AC  26156.12370514  .00000056  00000+0  11727-3 0  9994",
    "line2": "2 48236  87.8951 292.0916 0002203 100.8848 259.2530 13.14502618246603"
  },
  {
    "name": "ONEWEB-0194",
    "noradId": "48237",
    "line1": "1 48237U 21031AD  26156.10321617 -.00000103  00000+0 -31294-3 0  9999",
    "line2": "2 48237  87.8956 292.1171 0001762  93.0408 267.0923 13.14502110246775"
  },
  {
    "name": "ONEWEB-0193",
    "noradId": "48238",
    "line1": "1 48238U 21031AE  26156.11907515  .00000163  00000+0  40597-3 0  9998",
    "line2": "2 48238  87.8955 292.1043 0001560  90.0010 270.1299 13.14501662246722"
  },
  {
    "name": "ONEWEB-0191",
    "noradId": "48239",
    "line1": "1 48239U 21031AF  26156.13018241  .00000305  00000+0  78806-3 0  9992",
    "line2": "2 48239  87.8959 292.1003 0002085  97.9283 262.2084 13.14502630246588"
  },
  {
    "name": "ONEWEB-0195",
    "noradId": "48240",
    "line1": "1 48240U 21031AG  26156.10716554 -.00000247  00000+0 -69977-3 0  9999",
    "line2": "2 48240  87.8961 292.1056 0001774 112.0690 248.0629 13.14502026246560"
  },
  {
    "name": "ONEWEB-0201",
    "noradId": "48241",
    "line1": "1 48241U 21031AH  26156.09542734 -.00000196  00000+0 -56271-3 0  9991",
    "line2": "2 48241  87.8955 292.1246 0002190 100.6699 259.4677 13.14503523246797"
  },
  {
    "name": "ONEWEB-0207",
    "noradId": "48242",
    "line1": "1 48242U 21031AJ  26156.07546822  .00000085  00000+0  19494-3 0  9993",
    "line2": "2 48242  87.8962 292.1129 0002153 100.5311 259.6061 13.14501872246700"
  },
  {
    "name": "ONEWEB-0208",
    "noradId": "48243",
    "line1": "1 48243U 21031AK  26154.45876567  .00000169  00000+0  42111-3 0  9991",
    "line2": "2 48243  87.8956 292.4422 0001678 107.5541 252.5772 13.14502474246504"
  },
  {
    "name": "ONEWEB-0200",
    "noradId": "48244",
    "line1": "1 48244U 21031AL  26156.09687054  .00000351  00000+0  91229-3 0  9992",
    "line2": "2 48244  87.8962 292.1008 0001939 102.2098 257.9249 13.14499335246642"
  },
  {
    "name": "ONEWEB-0217",
    "noradId": "48245",
    "line1": "1 48245U 21031AM  26156.11273325 -.00000052  00000+0 -17398-3 0  9993",
    "line2": "2 48245  87.8962 292.1028 0001776 109.9833 250.1488 13.14501853246598"
  }
]